NUSAT-1 (FRESCO)        
1 41557U 16033B   22218.57573936  .00006719  00000+0  19578-3 0  9990
2 41557  97.3901 316.3981 0010573 190.0085 294.4767 15.35669057345078
BEESAT-4                
1 41619U 16040W   22217.37341126  .00007817  00000+0  25333-3 0  9994
2 41619  97.2132 266.7242 0007415 306.6146  53.4414 15.32243835328212
CAS-2T & KS-1Q          
1 41847U 16066G   22218.42038709  .00000464  00000+0  78514-4 0  9993
2 41847  98.5480 283.0284 0364461  60.5369 303.1663 14.38677294301535
NAYIF-1 (EO-88)         
1 42017U 17008BX  22218.16286599  .00009425  00000+0  27133-3 0  9999
2 42017  97.2656 283.5935 0006238  77.5629 282.6313 15.35956408304706
ZHUHAI-1 02 (CAS-4B)    
1 42759U 17034B   22218.51759513  .00001460  00000+0  95881-4 0  9998
2 42759  43.0179  56.6843 0010168 250.9744 199.5953 15.12185784283930
ZHUHAI-1 01 (CAS-4A)    
1 42761U 17034D   22218.41427875  .00001627  00000+0  10516-3 0  9999
2 42761  43.0183  56.0042 0010656 251.1354 177.0953 15.12273382283927
MAX VALIER SAT          
1 42778U 17036P   22217.85317933  .00004698  00000+0  17612-3 0  9994
2 42778  97.2020 257.2691 0011994 143.2776 216.9288 15.27651697284443
RADFXSAT (FOX-1B)       
1 43017U 17073E   22217.67542972  .00002949  00000+0  22309-3 0  9991
2 43017  97.6688 109.8479 0248511  26.9797 334.4086 14.81706330254406
FOX-1D (AO-92)          
1 43137U 18004AC  22217.48058176  .00005541  00000+0  19239-3 0  9995
2 43137  97.3662 292.2167 0007755 176.0152 184.1152 15.30151808253833
DIWATA-2B               
1 43678U 18084H   22218.54037593  .00000681  00000+0  72497-4 0  9997
2 43678  97.9776 352.4126 0011115 116.4345 243.8031 14.92241660205329
ES'HAIL 2               
1 43700U 18090A   22218.23356900  .00000149  00000+0  00000+0 0  9997
2 43700   0.0129  97.8093 0001775  73.0093 253.7975  1.00271884 13773
FOX-1CLIFF (AO-95)      
1 43770U 18099N   22218.13546762  .00001785  00000+0  16121-3 0  9991
2 43770  97.6183 283.1941 0015850 107.7841 252.5111 14.96632736200446
ITASAT 1                
1 43786U 18099AE  22218.19120193  .00001352  00000+0  12299-3 0  9992
2 43786  97.6204 284.1936 0016362 101.6591 258.6468 14.96748580200498
JY1SAT (JO-97)          
1 43803U 18099AX  22218.12499680  .00001668  00000+0  14850-3 0  9990
2 43803  97.6165 283.8987 0016263 101.1027 259.2025 14.97286674200505
UWE-4                   
1 43880U 18111E   22217.68811259  .00001959  00000+0  16897-3 0  9996
2 43880  97.6640 123.1374 0013019 146.8483 213.3558 14.98370371197070
NEXUS (FO-99)           
1 43937U 19003F   22217.90080655  .00007462  00000+0  24487-3 0  9992
2 43937  97.1279 249.3523 0019004 342.3137  17.7441 15.31699442197542
PSAT2 (NO-104)          
1 44354U 19036R   22218.22255633  .00034967 -59369-5  27873-3 0  9999
2 44354  28.5228 191.9828 0214139 173.9888 186.3346 15.44429338172364
JAISAT-1                
1 44419U 19038F   22217.88668650  .00004568  00000+0  22753-3 0  9998
2 44419  97.6386 188.4377 0017746 325.6132  34.3952 15.17963151170551
DUCHIFAT-3              
1 44854U 19089C   22218.52398714  .00001395  00000+0  11236-3 0  9999
2 44854  36.9658 163.4436 0009387 272.9091  87.0582 15.01334245145466
CAS-6 (TO-108)          
1 44881U 19093C   22218.54988574  .00000202  00000+0  32226-4 0  9994
2 44881  97.8919 297.0393 0015727  27.9804 332.2252 14.81775475142190
RS-44 & BREEZE-KM R/B   
1 44909U 19096E   22218.46202479  .00000035  00000+0  95810-4 0  9994
2 44909  82.5211 197.0514 0216853 202.5332 156.6136 12.79714224121951
ORBITAL FACTORY 2 (OF-2)
1 45113U 19071C   22218.12468067  .00016908  00000+0  33034-3 0  9990
2 45113  51.6365 174.5651 0009694   4.5950 355.5126 15.47532761141062
HUSKYSAT-1 (HO-107)     
1 45119U 19071J   22217.45340579  .00015250  00000+0  31153-3 0  9997
2 45119  51.6365 178.3035 0009426 358.0270   2.0678 15.46323721140946
BY70-2                  
1 45857U 20042B   22218.58928034  .00002729  00000+0  36469-3 0  9991
2 45857  97.9552 294.9673 0008953 319.9812  40.0756 14.80313169112873
SALSAT                  
1 46495U 20068K   22217.64255567  .00001267  00000+0  94250-4 0  9997
2 46495  97.7314 158.9679 0018037 109.3261 250.9917 15.04679731101588
BY70-3                  
1 46839U 20079N   22218.51506486  .00012919  00000+0  28696-3 0  9993
2 46839  97.1949 290.0101 0006598 140.2890 345.4906 15.43797074 97965
RADFXSAT-2 (AO-109)     
1 47311U 21002C   22218.34302340  .00005801  00000+0  23317-3 0  9997
2 47311  60.6846 174.3471 0025766  15.3976 344.7890 15.25919635 86085
UVSQ-SAT                
1 47438U 21006AB  22218.38001126  .00003480  00000+0  18343-3 0  9997
2 47438  97.4340 276.3714 0013504 101.5434 258.7316 15.16163289 84844
DIY-1 (ARDUIQUBE)       
1 47963U 21022AH  22217.97729857  .00008379  00000+0  45433-3 0  9992
2 47963  97.5267 118.7947 0015273 329.0592  30.9739 15.14731065 74445
XW-3 (CAS-9)            
1 50466U 21131B   22218.53103531 -.00000015  00000+0  95691-5 0  9996
2 50466  98.5792 295.7586 0004482  16.9243 343.2093 14.38512845 32110
TEVEL-3                 
1 50988U 22002E   22218.44823389  .00003258  00000+0  17823-3 0  9993
2 50988  97.4789 284.6061 0008115 245.9647 244.3551 15.14943602 30984
TEVEL-8                 
1 50989U 22002F   22218.45388222  .00003270  00000+0  17910-3 0  9998
2 50989  97.4799 284.6345 0008117 245.3726 238.5307 15.14890941 30986
TEVEL-5                 
1 50998U 22002Q   22218.45191894  .00003321  00000+0  17910-3 0  9992
2 50998  97.4777 284.7302 0009689 241.6870 241.7628 15.15429729 30996
TEVEL-6                 
1 50999U 22002R   22218.45143218  .00003354  00000+0  18080-3 0  9995
2 50999  97.4767 284.7269 0009658 241.1494 242.2997 15.15434201 30997
TEVEL-1                 
1 51013U 22002AF  22218.45008395  .00003288  00000+0  17996-3 0  9990
2 51013  97.4785 284.5882 0008037 245.1893 238.7963 15.14918412 30983
TEVEL-7                 
1 51062U 22002CG  22218.45501534  .00003266  00000+0  17893-3 0  9999
2 51062  97.4794 284.6226 0008065 244.4469 236.8395 15.14881663 30987
TEVEL-4                 
1 51063U 22002CH  22218.44377377  .00003236  00000+0  17736-3 0  9998
2 51063  97.4795 284.6088 0008104 244.3135 171.6833 15.14872695 30986
TEVEL-2                 
1 51069U 22002CP  22218.44947043  .00003261  00000+0  17843-3 0  9994
2 51069  97.4786 284.5945 0008069 246.0095 244.2410 15.14935961 30981
